OBJECT_NAME,OBJECT_ID,EPOCH,MEAN_MOTION,ECCENTRICITY,INCLINATION,RA_OF_ASC_NODE,ARG_OF_PERICENTER,MEAN_ANOMALY,EPHEMERIS_TYPE,CLASSIFICATION_TYPE,NORAD_CAT_ID,ELEMENT_SET_NO,REV_AT_EPOCH,BSTAR,MEAN_MOTION_DOT,MEAN_MOTION_DDOT
SL-16 R/B,1996-051B,2026-07-23T08:40:47.284896,14.12459817,.001835,70.7639,248.0951,287.5632,72.3483,0,U,24298,999,54080,.11242E-3,.159E-5,0
ORBVIEW 2 (SEASTAR),1997-037A,2026-07-23T07:59:34.498752,14.35569680,.000275,98.8722,12.3603,43.9924,316.1479,0,U,24883,999,52793,.79708E-4,.183E-5,0
SL-16 R/B,1998-043G,2026-07-23T20:20:07.393056,14.26073866,.0009579,98.8384,159.3262,346.4051,13.6869,0,U,25400,999,45839,.35606E-4,.4E-6,0
SL-16 R/B,1998-045B,2026-07-23T09:35:33.217728,14.16206476,.0007733,71.0097,256.1743,194.7119,165.3781,0,U,25407,999,44631,.14728E-3,.244E-5,0
ISS (ZARYA),1998-067A,2026-07-23T19:55:54.431040,15.49124476,.0006921,51.6314,118.7564,330.4598,29.5998,0,U,25544,999,57743,.18169E-3,.962E-4,0
CZ-4B R/B,1999-025C,2026-07-23T13:27:41.383296,14.18288692,.0036246,98.6468,245.4807,315.2470,209.8473,0,U,25732,999,40742,.30494E-4,.2E-6,0
OKEAN-O,1999-039A,2026-07-23T12:09:05.038848,14.80504211,.0000941,97.9293,262.8834,102.7494,257.3823,0,U,25860,999,45448,.67254E-4,.463E-5,0
SL-16 R/B,1999-039B,2026-07-23T15:06:25.647264,14.81877015,.0015003,97.9816,263.3845,170.8547,189.2941,0,U,25861,999,45699,.58854E-4,.412E-5,0
DELTA 2 R/B,1999-041E,2026-07-23T18:27:29.154816,14.12110776,.0501474,51.7616,117.6352,30.0694,332.8050,0,U,25876,999,38225,.28393E-3,.1527E-4,0
HELIOS 1B,1999-064A,2026-07-23T16:35:48.503040,14.88091324,.0001543,98.1573,110.8827,44.4548,315.6791,0,U,25977,999,70548,.13562E-3,.1189E-4,0
TERRA,1999-068A,2026-07-23T20:37:35.673024,14.61128749,.0003661,97.9435,252.9477,105.7480,308.7370,0,U,25994,999,41496,.76192E-4,.33E-5,0
SL-16 R/B,2000-006B,2026-07-23T09:06:35.706816,14.15840808,.0017575,71.0014,172.5240,328.5620,31.4451,0,U,26070,999,36776,.19579E-3,.338E-5,0
TITAN 4B R/B,2000-047B,2026-07-23T19:34:45.460416,15.10367235,.0045722,67.9892,17.4554,250.0836,109.5385,0,U,26474,999,41346,.18536E-3,.2985E-4,0
ENVISAT,2002-009A,2026-07-23T21:11:19.192128,14.39072267,.0001289,98.3851,155.3867,82.0020,295.5764,0,U,27386,999,27876,.36607E-4,.7E-6,0
IDEFIX & ARIANE 42P R/B,2002-021B,2026-07-23T08:18:56.780064,14.31096471,.0012371,98.5941,141.4388,143.2487,216.9546,0,U,27422,999,26342,.7778E-4,.161E-5,0
AQUA,2002-022A,2026-07-23T20:45:13.915296,14.62137943,.0001374,98.4303,174.8863,102.1497,288.0645,0,U,27424,999,28863,.13619E-3,.635E-5,0
CZ-4B R/B,2002-024C,2026-07-23T14:45:21.254112,14.14569187,.0050032,98.8678,257.1944,358.1214,154.6194,0,U,27432,999,24845,.28391E-4,.11E-6,0
MIDORI II (ADEOS-II),2002-056A,2026-07-23T21:19:40.593792,14.29366319,.0001098,98.7900,164.4651,30.7729,329.3516,0,U,27597,999,22975,.96139E-4,.2E-5,0
H-2A R/B,2002-056E,2026-07-23T20:23:45.259296,14.33837581,.0071269,98.3333,160.1920,115.4830,265.8686,0,U,27601,999,23362,.9606E-4,.234E-5,0
CZ-4B R/B,2003-049C,2026-07-23T11:16:15.492864,14.55120001,.0048152,98.6916,204.7638,175.9241,184.2357,0,U,28059,999,20634,.69928E-4,.255E-5,0
CZ-2C R/B,2004-012C,2026-07-23T04:39:32.874336,15.87227485,.0010277,97.7022,284.2648,167.2657,192.8875,0,U,28222,999,22559,.64998E-3,.172298E-2,0
SL-16 R/B,2004-021B,2026-07-23T08:46:41.797920,14.14615242,.0006005,71.0025,307.7626,217.1052,142.9656,0,U,28353,999,14202,-.94719E-4,-.23E-5,0
CZ-4B R/B,2004-035C,2026-07-23T12:58:42.598848,15.31078211,.0030001,97.3357,237.2128,202.0029,157.9926,0,U,28415,999,20068,.2428E-3,.7312E-4,0
CZ-2C R/B,2004-046B,2026-07-23T07:14:27.805344,14.27035251,.0140486,98.1906,110.8184,113.5608,248.0402,0,U,28480,999,12784,.56031E-4,.112E-5,0
ARIANE 5 R/B,2004-049H,2026-07-23T10:29:01.196160,14.85486127,.0082502,98.2748,18.0977,271.1407,88.0356,0,U,28499,999,16594,.64246E-4,.522E-5,0
CZ-2D R/B,2005-024B,2026-07-23T12:17:18.801024,15.73635348,.0003784,97.3472,225.8630,172.5565,187.5756,0,U,28738,999,16104,.53008E-3,.74504E-3,0
ALOS (DAICHI),2006-002A,2026-07-23T08:50:56.148288,14.70114782,.0001035,98.1342,159.8290,110.9546,249.1770,0,U,28931,999,9341,.1719E-3,.984E-5,0
H-2A R/B,2006-002B,2026-07-23T10:24:32.072256,15.18547085,.00512,98.2600,3.5628,138.2774,222.2380,0,U,28932,999,11502,.38937E-3,.8243E-4,0
RESURS-DK 1,2006-021A,2026-07-23T07:47:10.675104,15.13340824,.0007572,69.9299,245.9974,262.5212,97.5094,0,U,29228,999,10804,.95009E-4,.1589E-4,0
CZ-4B R/B,2006-046C,2026-07-23T20:08:57.458688,15.18034607,.0033387,97.5435,249.3342,152.5633,207.7373,0,U,29507,999,8069,.20211E-3,.4102E-4,0
CZ-2C R/B,2007-010B,2026-07-23T06:29:24.365760,14.20283420,.0057767,98.4119,310.8610,259.7960,99.6700,0,U,31114,999,99896,.54595E-4,.77E-6,0
